NORAD_CAT_ID,OBJECT_NAME,OBJECT_TYPE,EPOCH,MEAN_MOTION,ECCENTRICITY,INCLINATION,RA_OF_ASC_NODE,ARG_OF_PERICENTER,MEAN_ANOMALY,BSTAR,MEAN_MOTION_DOT,MEAN_MOTION_DDOT,TLE_LINE0,TLE_LINE1,TLE_LINE2,SEMIMAJOR_AXIS,PERIOD,APOGEE,PERIGEE,DECAYED
53554.0,STARLINK-4506,PAYLOAD,2024-04-23 09:45:17,15.0885986,0.0001637,53.219,260.4877,96.3725,263.7454,-2.7345e-05,-7.24e-06,0.0,0 STARLINK-4506,1 53554U 22101AD  24114.40644826 -.00000724  00000-0 -27345-4 0  9994,2 53554  53.2190 260.4877 0001637  96.3725 263.7454 15.08859860 92852,6917.82,95.436,540.817,538.552,0.0
53554.0,STARLINK-4506,PAYLOAD,2024-04-23 14:31:26,15.08855498,0.0001348,53.2192,259.5877,96.6483,263.4663,-8.2243e-05,-1.597e-05,0.0,0 STARLINK-4506,1 53554U 22101AD  24114.60516998 -.00001597  00000-0 -82243-4 0  9991,2 53554  53.2192 259.5877 0001348  96.6483 263.4663 15.08855498 92881,6917.833,95.437,540.631,538.765,0.0
53554.0,STARLINK-4506,PAYLOAD,2024-04-23 16:06:49,15.08855627,0.0001364,53.2191,259.2904,92.5929,267.5219,-7.9105e-05,-1.547e-05,0.0,0 STARLINK-4506,1 53554U 22101AD  24114.67140928 -.00001547  00000-0 -79105-4 0  9992,2 53554  53.2191 259.2904 0001364  92.5929 267.5219 15.08855627 92893,6917.833,95.437,540.641,538.754,0.0
53554.0,STARLINK-4506,PAYLOAD,2024-04-24 12:46:50,15.08845491,0.0001404,53.2188,255.4261,104.8472,255.2675,-0.00012573,-2.289e-05,0.0,0 STARLINK-4506,1 53554U 22101AD  24115.53253254 -.00002289  00000-0 -12573-3 0  9994,2 53554  53.2188 255.4261 0001404 104.8472 255.2675 15.08845491 93022,6917.864,95.437,540.7,538.757,0.0
53554.0,STARLINK-4506,PAYLOAD,2024-04-24 14:22:13,15.08844846,0.0001343,53.218,255.1288,89.336,270.7786,-0.00011259,-2.08e-05,0.0,0 STARLINK-4506,1 53554U 22101AD  24115.59877288 -.00002080  00000-0 -11259-3 0  9998,2 53554  53.2180 255.1288 0001343  89.3360 270.7786 15.08844846 93034,6917.866,95.437,540.66,538.802,0.0
53554.0,STARLINK-4506,PAYLOAD,2024-04-24 15:57:39,15.08743999,0.0002031,53.2181,254.8318,93.5684,266.554,0.0012326,0.00019332,0.0,0 STARLINK-4506,1 53554U 22101AD  24115.66503479  .00019332  00000-0  12326-2 0  9995,2 53554  53.2181 254.8318 0002031  93.5684 266.5540 15.08743999 93045,6918.174,95.444,541.444,538.634,0.0
53554.0,STARLINK-4506,PAYLOAD,2024-04-25 12:37:38,15.0883104,0.0001581,53.2185,250.9676,96.7929,263.3243,1.0497e-05,-1.21e-06,0.0,0 STARLINK-4506,1 53554U 22101AD  24116.52613729 -.00000121  00000-0  10497-4 0  9997,2 53554  53.2185 250.9676 0001581  96.7929 263.3243 15.08831040 93173,6917.908,95.438,540.866,538.679,0.0
53554.0,STARLINK-4506,PAYLOAD,2024-04-25 14:13:01,15.08830238,0.000158,53.2188,250.6703,100.2189,259.8982,2.8142e-06,-2.43e-06,0.0,0 STARLINK-4506,1 53554U 22101AD  24116.59237819 -.00000243  00000-0  28142-5 0  9998,2 53554  53.2188 250.6703 0001580 100.2189 259.8982 15.08830238 93181,6917.91,95.438,540.868,538.682,0.0
53554.0,STARLINK-4506,PAYLOAD,2024-04-25 15:48:24,15.08829288,0.0001518,53.2187,250.3733,94.8993,265.2172,-3.9406e-06,-3.51e-06,0.0,0 STARLINK-4506,1 53554U 22101AD  24116.65861961 -.00000351  00000-0 -39406-5 0  9992,2 53554  53.2187 250.3733 0001518  94.8993 265.2172 15.08829288 93198,6917.913,95.438,540.828,538.728,0.0
53554.0,STARLINK-4506,PAYLOAD,2024-04-26 14:03:48,15.08834351,0.0001476,53.2187,246.2112,98.0938,262.0221,3.7382e-05,3.07e-06,0.0,0 STARLINK-4506,1 53554U 22101AD  24117.58597987  .00000307  00000-0  37382-4 0  9998,2 53554  53.2187 246.2112 0001476  98.0938 262.0221 15.08834351 93334,6917.898,95.438,540.784,538.742,0.0
53554.0,STARLINK-4506,PAYLOAD,2024-04-26 15:39:11,15.0883607,0.0001592,53.2194,245.9216,108.9985,251.118,4.8334e-05,4.81e-06,0.0,0 STARLINK-4506,1 53554U 22101AD  24117.65221899  .00000481  00000-0  48334-4 0  9994,2 53554  53.2194 245.9216 0001592 108.9985 251.1180 15.08836070 93349,6917.892,95.438,540.859,538.656,0.0
53554.0,STARLINK-4506,PAYLOAD,2024-04-27 01:11:28,15.08857443,0.0001356,53.2185,244.1298,92.1668,267.948,0.00024358,3.593e-05,0.0,0 STARLINK-4506,1 53554U 22101AD  24118.04963634  .00003593  00000-0  24358-3 0  9994,2 53554  53.2185 244.1298 0001356  92.1668 267.9480 15.08857443 93402,6917.827,95.436,540.63,538.754,0.0
53554.0,STARLINK-4506,PAYLOAD,2024-04-27 12:19:13,15.08820708,0.000141,53.2191,242.0547,110.0499,250.0645,-5.7859e-05,-1.208e-05,0.0,0 STARLINK-4506,1 53554U 22101AD  24118.51335130 -.00001208  00000-0 -57859-4 0  9996,2 53554  53.2191 242.0547 0001410 110.0499 250.0645 15.08820708 93473,6917.939,95.439,540.78,538.829,0.0
53554.0,STARLINK-4506,PAYLOAD,2024-04-27 13:54:36,15.08822546,0.0001548,53.2192,241.7576,107.0799,253.0363,-4.1334e-05,-9.45e-06,0.0,0 STARLINK-4506,1 53554U 22101AD  24118.57959064 -.00000945  00000-0 -41334-4 0  9998,2 53554  53.2192 241.7576 0001548 107.0799 253.0363 15.08822546 93486,6917.934,95.439,540.87,538.728,0.0
53554.0,STARLINK-4506,PAYLOAD,2024-04-27 17:05:22,15.08834438,0.0001279,53.219,241.1598,92.6673,267.4465,5.3112e-05,5.57e-06,0.0,0 STARLINK-4506,1 53554U 22101AD  24118.71206202  .00000557  00000-0  53112-4 0  9997,2 53554  53.2190 241.1598 0001279  92.6673 267.4465 15.08834438 93501,6917.897,95.438,540.647,538.878,0.0
53554.0,STARLINK-4506,PAYLOAD,2024-04-28 12:10:01,15.08822954,0.0001306,53.2183,237.5914,99.5715,260.5425,-0.00011038,-2.043e-05,0.0,0 STARLINK-4506,1 53554U 22101AD  24119.50695782 -.00002043  00000-0 -11038-3 0  9994,2 53554  53.2183 237.5914 0001306  99.5715 260.5425 15.08822954 93621,6917.932,95.439,540.701,538.894,0.0
53554.0,STARLINK-4506,PAYLOAD,2024-04-28 13:45:24,15.08823942,0.0001333,53.2186,237.294,98.3673,261.747,-0.00010132,-1.899e-05,0.0,0 STARLINK-4506,1 53554U 22101AD  24119.57319751 -.00001899  00000-0 -10132-3 0  9992,2 53554  53.2186 237.2940 0001333  98.3673 261.7470 15.08823942 93632,6917.929,95.439,540.717,538.872,0.0
53554.0,STARLINK-4506,PAYLOAD,2024-04-28 15:20:47,15.08824643,0.000156,53.2186,236.9961,110.4649,249.6511,-0.00010789,-2.004e-05,0.0,0 STARLINK-4506,1 53554U 22101AD  24119.63943759 -.00002004  00000-0 -10789-3 0  9997,2 53554  53.2186 236.9961 0001560 110.4649 249.6511 15.08824643 93643,6917.927,95.439,540.872,538.713,0.0
53554.0,STARLINK-4506,PAYLOAD,2024-04-29 00:53:04,15.08851215,0.0001087,53.2198,235.2079,92.8524,267.2593,-8.4228e-05,-1.628e-05,0.0,0 STARLINK-4506,1 53554U 22101AD  24120.03685905 -.00001628  00000-0 -84228-4 0  9990,2 53554  53.2198 235.2079 0001087  92.8524 267.2593 15.08851215 93705,6917.846,95.437,540.463,538.959,0.0
53554.0,STARLINK-4506,PAYLOAD,2024-04-29 13:36:10,15.08825023,8.84e-05,53.2176,232.8321,108.4955,251.6134,0.00014508,2.021e-05,0.0,0 STARLINK-4506,1 53554U 22101AD  24120.56678910  .00002021  00000-0  14508-3 0  9995,2 53554  53.2176 232.8321 0000884 108.4955 251.6134 15.08825023 93784,6917.926,95.439,540.403,539.18,0.0
53554.0,STARLINK-4506,PAYLOAD,2024-04-29 15:11:32,15.08849512,9.05e-05,53.2189,232.5348,92.4259,267.6837,0.00014293,1.988e-05,0.0,0 STARLINK-4506,1 53554U 22101AD  24120.63301577  .00001988  00000-0  14293-3 0  9997,2 53554  53.2189 232.5348 0000905  92.4259 267.6837 15.08849512 93794,6917.851,95.437,540.342,539.09,0.0
53554.0,STARLINK-4506,PAYLOAD,2024-04-30 13:26:56,15.0883486,8.48e-05,53.2185,228.372,101.9304,258.1783,0.00023097,3.39e-05,0.0,0 STARLINK-4506,1 53554U 22101AD  24121.56038037  .00003390  00000-0  23097-3 0  9999,2 53554  53.2185 228.3720 0000848 101.9304 258.1783 15.08834860 93931,6917.896,95.438,540.348,539.174,0.0
53554.0,STARLINK-4506,PAYLOAD,2024-05-01 00:34:38,15.08850148,8.34e-05,53.2174,226.2917,106.5552,253.5531,0.00014645,2.044e-05,0.0,0 STARLINK-4506,1 53554U 22101AD  24122.02405130  .00002044  00000-0  14645-3 0  9997,2 53554  53.2174 226.2917 0000834 106.5552 253.5531 15.08850148 94001,6917.849,95.437,540.291,539.137,0.0
53554.0,STARLINK-4506,PAYLOAD,2024-05-01 13:17:43,15.08844609,0.0001156,53.2171,223.911,101.3078,258.8044,6.7824e-05,7.92e-06,0.0,0 STARLINK-4506,1 53554U 22101AD  24122.55397435  .00000792  00000-0  67824-4 0  9999,2 53554  53.2171 223.9110 0001156 101.3078 258.8044 15.08844609 94081,6917.866,95.437,540.531,538.932,0.0
53554.0,STARLINK-4506,PAYLOAD,2024-05-02 13:08:31,15.0883731,0.0001138,53.2183,219.4519,95.4944,264.6178,-7.8572e-05,-1.538e-05,0.0,0 STARLINK-4506,1 53554U 22101AD  24123.54758209 -.00001538  00000-0 -78572-4 0  9992,2 53554  53.2183 219.4519 0001138  95.4944 264.6178 15.08837310 94233,6917.889,95.438,540.541,538.966,0.0
53554.0,STARLINK-4506,PAYLOAD,2024-05-03 12:59:18,15.08827206,9.73e-05,53.2165,214.9912,89.2721,270.8382,-7.4051e-05,-1.466e-05,0.0,0 STARLINK-4506,1 53554U 22101AD  24124.54119132 -.00001466  00000-0 -74051-4 0  9997,2 53554  53.2165 214.9912 0000973  89.2721 270.8382 15.08827206 94385,6917.919,95.438,540.458,539.111,0.0
53554.0,STARLINK-4506,PAYLOAD,2024-05-03 22:31:37,15.08830202,0.0001093,53.2174,213.2066,89.6879,270.4239,8.7958e-07,-2.74e-06,0.0,0 STARLINK-4506,1 53554U 22101AD  24124.93862953 -.00000274  00000-0  87958-6 0  9993,2 53554  53.2174 213.2066 0001093  89.6879 270.4239 15.08830202 94443,6917.91,95.438,540.531,539.019,0.0
53554.0,STARLINK-4506,PAYLOAD,2024-05-04 12:50:05,15.08836093,0.0001064,53.2173,210.5313,92.2528,267.8586,9.5216e-05,1.228e-05,0.0,0 STARLINK-4506,1 53554U 22101AD  24125.53478556  .00001228  00000-0  95216-4 0  9995,2 53554  53.2173 210.5313 0001064  92.2528 267.8586 15.08836093 94535,6917.892,95.438,540.493,539.021,0.0
53554.0,STARLINK-4506,PAYLOAD,2024-05-04 22:22:23,15.08843625,0.0001123,53.2179,208.7464,87.1288,272.9832,0.00015657,2.205e-05,0.0,0 STARLINK-4506,1 53554U 22101AD  24125.93221895  .00002205  00000-0  15657-3 0  9997,2 53554  53.2179 208.7464 0001123  87.1288 272.9832 15.08843625 94595,6917.869,95.437,540.511,538.957,0.0
53554.0,STARLINK-4506,PAYLOAD,2024-05-05 12:40:52,15.08835225,0.0001511,53.2185,206.0684,76.8849,283.2311,5.8534e-05,6.44e-06,0.0,0 STARLINK-4506,1 53554U 22101AD  24126.52839080  .00000644  00000-0  58534-4 0  9991,2 53554  53.2185 206.0684 0001511  76.8849 283.2311 15.08835225 94680,6917.895,95.438,540.805,538.715,0.0
